[{"OBJECT_NAME":"STARLINK-5420","OBJECT_ID":"2022-175AS","EPOCH":"2026-03-09T07:02:21.312672","MEAN_MOTION":15.08833324,"ECCENTRICITY":0.00016257,"INCLINATION":53.2179,"RA_OF_ASC_NODE":20.6647,"ARG_OF_PERICENTER":83.9957,"MEAN_ANOMALY":276.1221,"EPHEMERIS_TYPE":0,"CLASSIFICATION_TYPE":"U","NORAD_CAT_ID":54798,"ELEMENT_SET_NO":999,"REV_AT_EPOCH":18021,"BSTAR":3.1865183e-5,"MEAN_MOTION_DOT":2.19e-6,"MEAN_MOTION_DDOT":0},{"OBJECT_NAME":"JILIN-01 KUANFU 02B 6","OBJECT_ID":"2024-169F","EPOCH":"2026-03-09T21:43:38.712288","MEAN_MOTION":15.09238946,"ECCENTRICITY":0.00150747,"INCLINATION":97.5549,"RA_OF_ASC_NODE":159.9459,"ARG_OF_PERICENTER":324.4254,"MEAN_ANOMALY":35.5968,"EPHEMERIS_TYPE":0,"CLASSIFICATION_TYPE":"U","NORAD_CAT_ID":61194,"ELEMENT_SET_NO":999,"REV_AT_EPOCH":8086,"BSTAR":0.00036442477,"MEAN_MOTION_DOT":5.751e-5,"MEAN_MOTION_DDOT":0}]
